{"fetched_at":"2026-03-29T16:36:15Z","count":15609,"tles":[{"name":"STARLINK-4738","line1":"1 53819U 22114B   26087.83550979 -.00000193  00000+0  59885-5 0  9998","line2":"2 53819  53.2173 218.0434 0001159  82.6163 277.4961 15.08840692195726","category":"Starlink"}]}