{
  "norad_id": 53819,
  "name": "STARLINK-4738",
  "history": [
    {
      "epoch": "2026-03-28T20:03:08.045856Z",
      "apogee_km": 540.5433326048151,
      "perigee_km": 538.9392149906871,
      "latitude_deg": 1.1297248406499204e-05,
      "longitude_deg": 91.0096320712564,
      "height_km": 540.5341829550143,
      "semi_major_axis_km": 6917.878273797751,
      "eccentricity": 0.00011594,
      "inclination_deg": 53.2173,
      "raan_deg": 218.0434,
      "arg_perigee_deg": 82.6163,
      "mean_anomaly_deg": 277.4961,
      "mean_motion_rev_day": 15.08840692
    }
  ]
}